{
    "CCSDS_OMM_VERS": "3.0",
    "COMMENT": "GENERATED VIA SPACE-TRACK.ORG API",
    "CREATION_DATE": "2025-11-23T21:08:43",
    "ORIGINATOR": "18 SPCS",
    "OBJECT_NAME": "BD-19",
    "OBJECT_ID": "2015-037B",
    "CENTER_NAME": "EARTH",
    "REF_FRAME": "TEME",
    "TIME_SYSTEM": "UTC",
    "MEAN_ELEMENT_THEORY": "SGP4",
    "EPOCH": "2025-11-22T19:54:46.275264",
    "MEAN_MOTION": "1.86254032",
    "ECCENTRICITY": "0.00032372",
    "INCLINATION": "55.0532",
    "RA_OF_ASC_NODE": "309.1371",
    "ARG_OF_PERICENTER": "354.0501",
    "MEAN_ANOMALY": "5.9388",
    "EPHEMERIS_TYPE": "0",
    "CLASSIFICATION_TYPE": "U",
    "NORAD_CAT_ID": "40749",
    "ELEMENT_SET_NO": "999",
    "REV_AT_EPOCH": "7028",
    "BSTAR": "0.00000000000000",
    "MEAN_MOTION_DOT": "-0.00000055",
    "MEAN_MOTION_DDOT": "0.0000000000000",
    "SEMIMAJOR_AXIS": "27903.888",
    "PERIOD": "773.138",
    "APOAPSIS": "21534.786",
    "PERIAPSIS": "21516.720",
    "OBJECT_TYPE": "PAYLOAD",
    "RCS_SIZE": "LARGE",
    "COUNTRY_CODE": "PRC",
    "LAUNCH_DATE": "2015-07-25",
    "SITE": "XSC",
    "DECAY_DATE": null,
    "FILE": "4896238",
    "GP_ID": "303332326",
    "TLE_LINE0": "0 BD-19",
    "TLE_LINE1": "1 40749U 15037B   25326.82970226 -.00000055  00000-0  00000-0 0  9995",
    "TLE_LINE2": "2 40749  55.0532 309.1371 0003237 354.0501   5.9388  1.86254032 70284"
}